INSPIRESAT 1            
1 51657U 22013B   26068.59787132  .00155562  00000+0  88744-3 0  9993
2 51657  97.4474 116.0552 0004267  92.8673 267.3082 15.78463076226864
STARLINK-36610          
1 67637U 26020W   26067.58701514  .00155361  00000+0  93652-3 0  9999
2 67637  42.9991 148.7377 0002115 262.5651  97.4979 15.76441226  5916
