[{"OBJECT_NAME":"INSPIRESAT 1","OBJECT_ID":"2022-013B","EPOCH":"2026-03-09T14:20:56.082048","MEAN_MOTION":15.78463076,"ECCENTRICITY":0.0004267,"INCLINATION":97.4474,"RA_OF_ASC_NODE":116.0552,"ARG_OF_PERICENTER":92.8673,"MEAN_ANOMALY":267.3082,"EPHEMERIS_TYPE":0,"CLASSIFICATION_TYPE":"U","NORAD_CAT_ID":51657,"ELEMENT_SET_NO":999,"REV_AT_EPOCH":22686,"BSTAR":0.00088744,"MEAN_MOTION_DOT":0.00155562,"MEAN_MOTION_DDOT":0},{"OBJECT_NAME":"STARLINK-36610","OBJECT_ID":"2026-020W","EPOCH":"2026-03-08T14:05:18.108096","MEAN_MOTION":15.76441226,"ECCENTRICITY":0.00021156,"INCLINATION":42.9991,"RA_OF_ASC_NODE":148.7377,"ARG_OF_PERICENTER":262.5651,"MEAN_ANOMALY":97.4979,"EPHEMERIS_TYPE":0,"CLASSIFICATION_TYPE":"U","NORAD_CAT_ID":67637,"ELEMENT_SET_NO":999,"REV_AT_EPOCH":591,"BSTAR":0.00093652396,"MEAN_MOTION_DOT":0.00155361,"MEAN_MOTION_DDOT":0}]
